start=new Date('2023-03-15T00:00:00.000Z').valueOf();
sats=[{"MEAN_MOTION_DDOT":"0.0000000000000","ECCENTRICITY":"0.00015630","OBJECT_TYPE":"PAYLOAD","NORAD_CAT_ID":"53638","DECAY_DATE":null,"TLE_LINE1":"1 53638U 22104BC  23073.73652759  .00003679  00000-0  24912-3 0  9999","CLASSIFICATION_TYPE":"U","PERIOD":"95.437","INCLINATION":"53.2187","FILE":"3860643","MEAN_ANOMALY":"265.4249","PERIAPSIS":"538.652","APOAPSIS":"540.814","REF_FRAME":"TEME","EPOCH":"2023-03-14T17:40:35.983776","REV_AT_EPOCH":"3153","EPHEMERIS_TYPE":"0","OBJECT_ID":"2022-104BC","TIME_SYSTEM":"UTC","BSTAR":"0.00024912000000","MEAN_MOTION":"15.08844112","SITE":"AFETR","OBJECT_NAME":"STARLINK-4594","ARG_OF_PERICENTER":"94.6922","GP_ID":"228111117","COUNTRY_CODE":"US","ELEMENT_SET_NO":"999","MEAN_ELEMENT_THEORY":"SGP4","TLE_LINE2":"2 53638  53.2187  81.2287 0001563  94.6922 265.4249 15.08844112 31536","RCS_SIZE":"LARGE","LAUNCH_DATE":"2022-08-28","SEMIMAJOR_AXIS":"6917.868","RA_OF_ASC_NODE":"81.2287","MEAN_MOTION_DOT":"0.00003679","CENTER_NAME":"EARTH"},{"ECCENTRICITY":"0.00013570","OBJECT_TYPE":"PAYLOAD","NORAD_CAT_ID":"53639","MEAN_MOTION_DDOT":"0.0000000000000","TLE_LINE1":"1 53639U 22104BD  23073.75125923  .00004390  00000-0  29370-3 0  9994","CLASSIFICATION_TYPE":"U","DECAY_DATE":null,"PERIOD":"95.437","PERIAPSIS":"538.803","INCLINATION":"53.2165","FILE":"3860643","MEAN_ANOMALY":"260.7276","APOAPSIS":"540.681","EPOCH":"2023-03-14T18:01:48.797472","REF_FRAME":"TEME","REV_AT_EPOCH":"3136","EPHEMERIS_TYPE":"0","MEAN_MOTION":"15.08841112","TIME_SYSTEM":"UTC","OBJECT_ID":"2022-104BD","BSTAR":"0.00029370000000","SITE":"AFETR","TLE_LINE2":"2 53639  53.2165  81.3150 0001357  99.3869 260.7276 15.08841112 31362","RCS_SIZE":"LARGE","OBJECT_NAME":"STARLINK-4422","GP_ID":"228111856","COUNTRY_CODE":"US","ELEMENT_SET_NO":"999","MEAN_ELEMENT_THEORY":"SGP4","ARG_OF_PERICENTER":"99.3869","SEMIMAJOR_AXIS":"6917.877","LAUNCH_DATE":"2022-08-28","CENTER_NAME":"EARTH","MEAN_MOTION_DOT":"0.00004390","RA_OF_ASC_NODE":"81.3150"},{"MEAN_MOTION_DDOT":"0.0000000000000","NORAD_CAT_ID":"53640","ECCENTRICITY":"0.00013290","OBJECT_TYPE":"PAYLOAD","DECAY_DATE":null,"CLASSIFICATION_TYPE":"U","TLE_LINE1":"1 53640U 22104BE  23073.74758419  .00016195  00000-0  10331-2 0  9999","PERIOD":"95.437","FILE":"3860643","MEAN_ANOMALY":"259.1282","INCLINATION":"53.2170","PERIAPSIS":"538.805","APOAPSIS":"540.643","EPOCH":"2023-03-14T17:56:31.274016","REF_FRAME":"TEME","EPHEMERIS_TYPE":"0","REV_AT_EPOCH":"3153","BSTAR":"0.00103310000000","OBJECT_ID":"2022-104BE","TIME_SYSTEM":"UTC","MEAN_MOTION":"15.08846972","SITE":"AFETR","GP_ID":"228110116","ELEMENT_SET_NO":"999","COUNTRY_CODE":"US","MEAN_ELEMENT_THEORY":"SGP4","ARG_OF_PERICENTER":"100.9860","OBJECT_NAME":"STARLINK-4597","RCS_SIZE":"LARGE","TLE_LINE2":"2 53640  53.2170  81.2930 0001329 100.9860 259.1282 15.08846972 31531","SEMIMAJOR_AXIS":"6917.859","LAUNCH_DATE":"2022-08-28","RA_OF_ASC_NODE":"81.2930","MEAN_MOTION_DOT":"0.00016195","CENTER_NAME":"EARTH"},{"REV_AT_EPOCH":"3153","EPHEMERIS_TYPE":"0","TIME_SYSTEM":"UTC","OBJECT_ID":"2022-104BF","BSTAR":"0.00025235000000","MEAN_MOTION":"15.08843733","OBJECT_NAME":"STARLINK-4588","COUNTRY_CODE":"US","GP_ID":"228110366","ARG_OF_PERICENTER":"102.3025","ELEMENT_SET_NO":"999","MEAN_ELEMENT_THEORY":"SGP4","RCS_SIZE":"LARGE","TLE_LINE2":"2 53641  53.2173  81.2721 0001089 102.3025 257.8089 15.08843733 31537","SITE":"AFETR","RA_OF_ASC_NODE":"81.2721","MEAN_MOTION_DOT":"0.00003731","CENTER_NAME":"EARTH","LAUNCH_DATE":"2022-08-28","SEMIMAJOR_AXIS":"6917.869","MEAN_MOTION_DDOT":"0.0000000000000","OBJECT_TYPE":"PAYLOAD","ECCENTRICITY":"0.00010890","NORAD_CAT_ID":"53641","DECAY_DATE":null,"TLE_LINE1":"1 53641U 22104BF  23073.74389917  .00003731  00000-0  25235-3 0  9995","CLASSIFICATION_TYPE":"U","FILE":"3860643","INCLINATION":"53.2173","MEAN_ANOMALY":"257.8089","PERIAPSIS":"538.981","PERIOD":"95.437","REF_FRAME":"TEME","EPOCH":"2023-03-14T17:51:12.888288","APOAPSIS":"540.487"},{"DECAY_DATE":null,"CLASSIFICATION_TYPE":"U","TLE_LINE1":"1 53648U 22105A   23073.81226085  .00003974  00000-0  31366-3 0  9998","MEAN_MOTION_DDOT":"0.0000000000000","NORAD_CAT_ID":"53648","OBJECT_TYPE":"PAYLOAD","ECCENTRICITY":"0.00045560","EPOCH":"2023-03-14T19:29:39.337440","REF_FRAME":"TEME","APOAPSIS":"566.119","INCLINATION":"97.6557","FILE":"3860643","MEAN_ANOMALY":"268.4946","PERIAPSIS":"559.794","PERIOD":"95.918","BSTAR":"0.00031366000000","OBJECT_ID":"2022-105A","TIME_SYSTEM":"UTC","MEAN_MOTION":"15.01277853","EPHEMERIS_TYPE":"0","REV_AT_EPOCH":"2957","RA_OF_ASC_NODE":"316.2410","MEAN_MOTION_DOT":"0.00003974","CENTER_NAME":"EARTH","LAUNCH_DATE":"2022-08-31","SEMIMAJOR_AXIS":"6941.092","MEAN_ELEMENT_THEORY":"SGP4","GP_ID":"228110616","COUNTRY_CODE":"US","ELEMENT_SET_NO":"999","ARG_OF_PERICENTER":"91.6800","OBJECT_NAME":"STARLINK-4622","TLE_LINE2":"2 53648  97.6557 316.2410 0004556  91.6800 268.4946 15.01277853 29579","RCS_SIZE":"LARGE","SITE":"AFWTR"},{"PERIOD":"95.919","PERIAPSIS":"560.156","INCLINATION":"97.6524","FILE":"3860245","MEAN_ANOMALY":"262.8356","APOAPSIS":"565.864","EPOCH":"2023-03-14T14:39:03.464064","REF_FRAME":"TEME","NORAD_CAT_ID":"53649","OBJECT_TYPE":"PAYLOAD","ECCENTRICITY":"0.00041120","MEAN_MOTION_DDOT":"0.0000000000000","CLASSIFICATION_TYPE":"U","TLE_LINE1":"1 53649U 22105B   23073.61045676 -.00001105  00000-0 -81451-4 0  9999","DECAY_DATE":null,"SITE":"AFWTR","TLE_LINE2":"2 53649  97.6524 316.0443 0004112  97.3335 262.8356 15.01260574 29814","RCS_SIZE":"LARGE","ARG_OF_PERICENTER":"97.3335","GP_ID":"228050875","COUNTRY_CODE":"US","ELEMENT_SET_NO":"999","MEAN_ELEMENT_THEORY":"SGP4","OBJECT_NAME":"STARLINK-4386","SEMIMAJOR_AXIS":"6941.145","LAUNCH_DATE":"2022-08-31","MEAN_MOTION_DOT":"-0.00001105","CENTER_NAME":"EARTH","RA_OF_ASC_NODE":"316.0443","EPHEMERIS_TYPE":"0","REV_AT_EPOCH":"2981","MEAN_MOTION":"15.01260574","BSTAR":"-0.00008145100000","OBJECT_ID":"2022-105B","TIME_SYSTEM":"UTC"},{"REV_AT_EPOCH":"2957","EPHEMERIS_TYPE":"0","OBJECT_ID":"2022-105C","TIME_SYSTEM":"UTC","BSTAR":"0.00042634000000","MEAN_MOTION":"15.01284334","SITE":"AFWTR","OBJECT_NAME":"STARLINK-4380","COUNTRY_CODE":"US","GP_ID":"228111118","MEAN_ELEMENT_THEORY":"SGP4","ELEMENT_SET_NO":"999","ARG_OF_PERICENTER":"85.7587","TLE_LINE2":"2 53650  97.6544 316.3039 0005544  85.7587 274.4271 15.01284334 29570","RCS_SIZE":"LARGE","SEMIMAJOR_AXIS":"6941.072","LAUNCH_DATE":"2022-08-31","RA_OF_ASC_NODE":"316.3039","MEAN_MOTION_DOT":"0.00005426","CENTER_NAME":"EARTH","MEAN_MOTION_DDOT":"0.0000000000000","OBJECT_TYPE":"PAYLOAD","ECCENTRICITY":"0.00055440","NORAD_CAT_ID":"53650","DECAY_DATE":null,"TLE_LINE1":"1 53650U 22105C   23073.87521252  .00005426  00000-0  42634-3 0  9995","CLASSIFICATION_TYPE":"U","PERIOD":"95.918","INCLINATION":"97.6544","FILE":"3860643","MEAN_ANOMALY":"274.4271","PERIAPSIS":"559.089","APOAPSIS":"566.785","REF_FRAME":"TEME","EPOCH":"2023-03-14T21:00:18.361728"},{"APOAPSIS":"566.554","REF_FRAME":"TEME","EPOCH":"2023-03-14T20:57:38.960640","PERIOD":"95.917","PERIAPSIS":"559.266","INCLINATION":"97.6533","FILE":"3860643","MEAN_ANOMALY":"282.4663","TLE_LINE1":"1 53651U 22105D   23073.87336760  .00013791  00000-0  10750-2 0  9991","CLASSIFICATION_TYPE":"U","DECAY_DATE":null,"OBJECT_TYPE":"PAYLOAD","ECCENTRICITY":"0.00052500","NORAD_CAT_ID":"53651","MEAN_MOTION_DDOT":"0.0000000000000","SEMIMAJOR_AXIS":"6941.045","LAUNCH_DATE":"2022-08-31","CENTER_NAME":"EARTH","MEAN_MOTION_DOT":"0.00013791","RA_OF_ASC_NODE":"316.3003","SITE":"AFWTR","TLE_LINE2":"2 53651  97.6533 316.3003 0005250  77.7149 282.4663 15.01293044 29571","RCS_SIZE":"LARGE","OBJECT_NAME":"STARLINK-4388","GP_ID":"228111857","ELEMENT_SET_NO":"999","COUNTRY_CODE":"US","ARG_OF_PERICENTER":"77.7149","MEAN_ELEMENT_THEORY":"SGP4","MEAN_MOTION":"15.01293044","TIME_SYSTEM":"UTC","OBJECT_ID":"2022-105D","BSTAR":"0.00107500000000","REV_AT_EPOCH":"2957","EPHEMERIS_TYPE":"0"},{"TLE_LINE2":"2 53652  97.6531 316.2974 0006226  83.7846 276.4087 15.01276060 29573","RCS_SIZE":"LARGE","OBJECT_NAME":"STARLINK-4374","COUNTRY_CODE":"US","GP_ID":"228110117","MEAN_ELEMENT_THEORY":"SGP4","ELEMENT_SET_NO":"999","ARG_OF_PERICENTER":"83.7846","SITE":"AFWTR","MEAN_MOTION_DOT":"0.00003596","CENTER_NAME":"EARTH","RA_OF_ASC_NODE":"316.2974","SEMIMAJOR_AXIS":"6941.097","LAUNCH_DATE":"2022-08-31","REV_AT_EPOCH":"2957","EPHEMERIS_TYPE":"0","MEAN_MOTION":"15.01276060","TIME_SYSTEM":"UTC","OBJECT_ID":"2022-105E","BSTAR":"0.00028425000000","PERIAPSIS":"558.641","FILE":"3860643","INCLINATION":"97.6531","MEAN_ANOMALY":"276.4087","PERIOD":"95.918","REF_FRAME":"TEME","EPOCH":"2023-03-14T20:54:58.724064","APOAPSIS":"567.284","ECCENTRICITY":"0.00062260","OBJECT_TYPE":"PAYLOAD","NORAD_CAT_ID":"53652","MEAN_MOTION_DDOT":"0.0000000000000","TLE_LINE1":"1 53652U 22105E   23073.87151301  .00003596  00000-0  28425-3 0  9999","CLASSIFICATION_TYPE":"U","DECAY_DATE":null},{"EPOCH":"2023-03-14T14:28:45.400800","REF_FRAME":"TEME","APOAPSIS":"566.720","PERIAPSIS":"559.274","FILE":"3860250","INCLINATION":"97.6523","MEAN_ANOMALY":"277.8597","PERIOD":"95.919","TLE_LINE1":"1 53653U 22105F   23073.60330325  .00002915  00000-0  23136-3 0  9994","CLASSIFICATION_TYPE":"U","DECAY_DATE":null,"OBJECT_TYPE":"PAYLOAD","ECCENTRICITY":"0.00053640","NORAD_CAT_ID":"53653","MEAN_MOTION_DDOT":"0.0000000000000","CENTER_NAME":"EARTH","MEAN_MOTION_DOT":"0.00002915","RA_OF_ASC_NODE":"316.0330","LAUNCH_DATE":"2022-08-31","SEMIMAJOR_AXIS":"6941.132","RCS_SIZE":"LARGE","TLE_LINE2":"2 53653  97.6523 316.0330 0005364  82.3237 277.8597 15.01264855 29817","OBJECT_NAME":"STARLINK-4390","ELEMENT_SET_NO":"999","GP_ID":"228050886","COUNTRY_CODE":"US","MEAN_ELEMENT_THEORY":"SGP4","ARG_OF_PERICENTER":"82.3237","SITE":"AFWTR","MEAN_MOTION":"15.01264855","TIME_SYSTEM":"UTC","OBJECT_ID":"2022-105F","BSTAR":"0.00023136000000","REV_AT_EPOCH":"2981","EPHEMERIS_TYPE":"0"}];
